PANDORA
1 67395U 80229J   26128.88724537  .00000000  00000-0  37770-3 0    04
2 67395  97.8042 128.1560 0003728 251.8209  41.3740 14.87986435    06
